IRIDIUM 119             
1 42959U 17061E   24027.92721287  .00000039  00000+0  69968-5 0  9991
2 42959  86.3958  29.3353 0002240  84.1184 276.0267 14.34218090329937
IRIDIUM 107             
1 42960U 17061F   24027.52761333 -.00000084  00000+0 -37158-4 0  9992
2 42960  86.3955  29.5185 0001817  86.4467 273.6936 14.34214667329885
IRIDIUM 132             
1 42961U 17061G   24027.53396541 -.00000137  00000+0 -56059-4 0  9999
2 42961  86.3955  29.5017 0001778  84.6967 275.4432 14.34217096329881
IRIDIUM 136             
1 42962U 17061H   24027.91452430  .00000062  00000+0  14950-4 0  9991
2 42962  86.3958  29.3451 0002329  83.8392 276.3069 14.34218496329950
IRIDIUM 139             
1 42963U 17061J   24027.92086121  .00000237  00000+0  77384-4 0  9997
2 42963  86.3959  29.3902 0001968  88.1837 271.9584 14.34220764329968
IRIDIUM 125             
1 42964U 17061K   24027.83840021  .00000244  00000+0  80240-4 0  9998
2 42964  86.3960  29.4698 0002118  79.8304 280.3131 14.34217010329960
IRIDIUM 135             
1 43070U 17083A   24027.88230305  .00000477  00000+0  16327-3 0  9996
2 43070  86.4001 326.1655 0002076  92.3773 267.7661 14.34218015319264
IRIDIUM 138             
1 43071U 17083B   24027.90767515  .00000108  00000+0  31343-4 0  9995
2 43071  86.3990 325.8902 0002145  80.3004 279.8434 14.34217907319253
